{
  "type": "FeatureCollection",
  "features": [
    {
      "type": "Feature",
      "properties": {
        "norad_id": 37960,
        "name": "COSMOS 2251 DEB",
        "group": "cosmos-2251-debris",
        "lat": 10.842831223469158,
        "lon": -154.3280446121638,
        "alt_km": 1020.0123320144012,
        "timestamp": "2025-12-03T19:33:07.375114+00:00",
        "meta_object_name": "COSMOS 2251 DEB",
        "meta_object_id": "1993-036BPK",
        "meta_epoch": "2025-12-03T00:44:10.802976",
        "meta_mean_motion": 14.07807809,
        "meta_eccentricity": 0.02496601,
        "meta_inclination": 74.0591,
        "meta_ra_of_asc_node": 203.9073,
        "meta_arg_of_pericenter": 224.9718,
        "meta_mean_anomaly": 133.0963,
        "meta_ephemeris_type": 0,
        "meta_classification_type": "U",
        "meta_norad_cat_id": 37960,
        "meta_element_set_no": 999,
        "meta_rev_at_epoch": 77269,
        "meta_bstar": 0.0012185346,
        "meta_mean_motion_dot": 2.721e-05,
        "meta_mean_motion_ddot": 0,
        "tle_line1": "1 37960U 93036BPK 25337.03068059  .00002721  00000+0  12185-2 0  9997",
        "tle_line2": "2 37960  74.0591 203.9073 0249660 224.9718 133.0963 14.07807809772697"
      },
      "geometry": {
        "type": "Point",
        "coordinates": [
          -154.3280446121638,
          10.842831223469158
        ]
      }
    },
    {
      "type": "Feature",
      "properties": {
        "norad_id": 37961,
        "name": "COSMOS 2251 DEB",
        "group": "cosmos-2251-debris",
        "lat": 45.39408332309238,
        "lon": 170.94269706393797,
        "alt_km": 724.8655703272589,
        "timestamp": "2025-12-03T19:33:07.375124+00:00",
        "meta_object_name": "COSMOS 2251 DEB",
        "meta_object_id": "1993-036BPL",
        "meta_epoch": "2025-12-01T04:44:47.787648",
        "meta_mean_motion": 14.57792656,
        "meta_eccentricity": 0.0041244,
        "meta_inclination": 74.04,
        "meta_ra_of_asc_node": 159.049,
        "meta_arg_of_pericenter": 241.5465,
        "meta_mean_anomaly": 118.1542,
        "meta_ephemeris_type": 0,
        "meta_classification_type": "U",
        "meta_norad_cat_id": 37961,
        "meta_element_set_no": 999,
        "meta_rev_at_epoch": 79897,
        "meta_bstar": 0.001072,
        "meta_mean_motion_dot": 4.934e-05,
        "meta_mean_motion_ddot": 0,
        "tle_line1": "1 37961U 93036BPL 25335.19777532  .00004934  00000+0  10720-2 0  9997",
        "tle_line2": "2 37961  74.0400 159.0490 0041244 241.5465 118.1542 14.57792656798977"
      },
      "geometry": {
        "type": "Point",
        "coordinates": [
          170.94269706393797,
          45.39408332309238
        ]
      }
    },
    {
      "type": "Feature",
      "properties": {
        "norad_id": 37966,
        "name": "COSMOS 2251 DEB",
        "group": "cosmos-2251-debris",
        "lat": -34.121312231021264,
        "lon": 80.31960442372399,
        "alt_km": 538.9349355527784,
        "timestamp": "2025-12-03T19:33:07.375135+00:00",
        "meta_object_name": "COSMOS 2251 DEB",
        "meta_object_id": "1993-036BPR",
        "meta_epoch": "2025-12-02T10:49:19.602048",
        "meta_mean_motion": 15.10966833,
        "meta_eccentricity": 0.00084464,
        "meta_inclination": 73.9763,
        "meta_ra_of_asc_node": 251.9188,
        "meta_arg_of_pericenter": 125.6609,
        "meta_mean_anomaly": 234.5371,
        "meta_ephemeris_type": 0,
        "meta_classification_type": "U",
        "meta_norad_cat_id": 37966,
        "meta_element_set_no": 999,
        "meta_rev_at_epoch": 85187,
        "meta_bstar": 0.0036739745,
        "meta_mean_motion_dot": 0.00061866,
        "meta_mean_motion_ddot": 0,
        "tle_line1": "1 37966U 93036BPR 25336.45092132  .00061866  00000+0  36740-2 0  9995",
        "tle_line2": "2 37966  73.9763 251.9188 0008446 125.6609 234.5371 15.10966833851879"
      },
      "geometry": {
        "type": "Point",
        "coordinates": [
          80.31960442372399,
          -34.121312231021264
        ]
      }
    },
    {
      "type": "Feature",
      "properties": {
        "norad_id": 37967,
        "name": "COSMOS 2251 DEB",
        "group": "cosmos-2251-debris",
        "lat": 18.955432783251617,
        "lon": 159.56595819619454,
        "alt_km": 746.6426924913249,
        "timestamp": "2025-12-03T19:33:07.375146+00:00",
        "meta_object_name": "COSMOS 2251 DEB",
        "meta_object_id": "1993-036BPS",
        "meta_epoch": "2025-12-02T18:27:27.592704",
        "meta_mean_motion": 14.4035347,
        "meta_eccentricity": 0.01507388,
        "meta_inclination": 74.0137,
        "meta_ra_of_asc_node": 155.8513,
        "meta_arg_of_pericenter": 296.7858,
        "meta_mean_anomaly": 61.7944,
        "meta_ephemeris_type": 0,
        "meta_classification_type": "U",
        "meta_norad_cat_id": 37967,
        "meta_element_set_no": 999,
        "meta_rev_at_epoch": 64592,
        "meta_bstar": 0.0017095367,
        "meta_mean_motion_dot": 6.178e-05,
        "meta_mean_motion_ddot": 0,
        "tle_line1": "1 37967U 93036BPS 25336.76906936  .00006178  00000+0  17095-2 0  9993",
        "tle_line2": "2 37967  74.0137 155.8513 0150738 296.7858  61.7944 14.40353470645921"
      },
      "geometry": {
        "type": "Point",
        "coordinates": [
          159.56595819619454,
          18.955432783251617
        ]
      }
    },
    {
      "type": "Feature",
      "properties": {
        "norad_id": 37968,
        "name": "COSMOS 2251 DEB",
        "group": "cosmos-2251-debris",
        "lat": 41.70472159233096,
        "lon": -55.834450751907966,
        "alt_km": 506.4959015999748,
        "timestamp": "2025-12-03T19:33:07.375156+00:00",
        "meta_object_name": "COSMOS 2251 DEB",
        "meta_object_id": "1993-036BPT",
        "meta_epoch": "2025-12-03T03:21:20.781504",
        "meta_mean_motion": 15.00197638,
        "meta_eccentricity": 0.00808241,
        "meta_inclination": 74.0001,
        "meta_ra_of_asc_node": 290.7252,
        "meta_arg_of_pericenter": 48.8285,
        "meta_mean_anomaly": 311.9836,
        "meta_ephemeris_type": 0,
        "meta_classification_type": "U",
        "meta_norad_cat_id": 37968,
        "meta_element_set_no": 999,
        "meta_rev_at_epoch": 60075,
        "meta_bstar": 0.0013441412,
        "meta_mean_motion_dot": 0.00018013,
        "meta_mean_motion_ddot": 0,
        "tle_line1": "1 37968U 93036BPT 25337.13982386  .00018013  00000+0  13441-2 0  9991",
        "tle_line2": "2 37968  74.0001 290.7252 0080824  48.8285 311.9836 15.00197638600750"
      },
      "geometry": {
        "type": "Point",
        "coordinates": [
          -55.834450751907966,
          41.70472159233096
        ]
      }
    },
    {
      "type": "Feature",
      "properties": {
        "norad_id": 37971,
        "name": "COSMOS 2251 DEB",
        "group": "cosmos-2251-debris",
        "lat": -7.412085662535191,
        "lon": -119.35320447353529,
        "alt_km": 686.6935717299857,
        "timestamp": "2025-12-03T19:33:07.375166+00:00",
        "meta_object_name": "COSMOS 2251 DEB",
        "meta_object_id": "1993-036BPW",
        "meta_epoch": "2025-12-03T12:03:21.947904",
        "meta_mean_motion": 14.48378174,
        "meta_eccentricity": 0.0068443,
        "meta_inclination": 73.9938,
        "meta_ra_of_asc_node": 59.093,
        "meta_arg_of_pericenter": 199.3195,
        "meta_mean_anomaly": 160.5369,
        "meta_ephemeris_type": 0,
        "meta_classification_type": "U",
        "meta_norad_cat_id": 37971,
        "meta_element_set_no": 999,
        "meta_rev_at_epoch": 60544,
        "meta_bstar": 0.0031797,
        "meta_mean_motion_dot": 0.00012254,
        "meta_mean_motion_ddot": 0,
        "tle_line1": "1 37971U 93036BPW 25337.50233736  .00012254  00000+0  31797-2 0  9999",
        "tle_line2": "2 37971  73.9938  59.0930 0068443 199.3195 160.5369 14.48378174605442"
      },
      "geometry": {
        "type": "Point",
        "coordinates": [
          -119.35320447353529,
          -7.412085662535191
        ]
      }
    },
    {
      "type": "Feature",
      "properties": {
        "norad_id": 37975,
        "name": "COSMOS 2251 DEB",
        "group": "cosmos-2251-debris",
        "lat": -69.80913428775217,
        "lon": -69.69883599722925,
        "alt_km": 607.1120532141003,
        "timestamp": "2025-12-03T19:33:07.375177+00:00",
        "meta_object_name": "COSMOS 2251 DEB",
        "meta_object_id": "1993-036BQA",
        "meta_epoch": "2025-11-29T10:05:48.736608",
        "meta_mean_motion": 14.74991313,
        "meta_eccentricity": 0.00977788,
        "meta_inclination": 74.0026,
        "meta_ra_of_asc_node": 350.1763,
        "meta_arg_of_pericenter": 342.2584,
        "meta_mean_anomaly": 17.5181,
        "meta_ephemeris_type": 0,
        "meta_classification_type": "U",
        "meta_norad_cat_id": 37975,
        "meta_element_set_no": 999,
        "meta_rev_at_epoch": 69549,
        "meta_bstar": 0.0028756754,
        "meta_mean_motion_dot": 0.00020929,
        "meta_mean_motion_ddot": 0,
        "tle_line1": "1 37975U 93036BQA 25333.42070297  .00020929  00000+0  28757-2 0  9991",
        "tle_line2": "2 37975  74.0026 350.1763 0097778 342.2584  17.5181 14.74991313695491"
      },
      "geometry": {
        "type": "Point",
        "coordinates": [
          -69.69883599722925,
          -69.80913428775217
        ]
      }
    }
  ]
}